     2.10           G: GLONASS NAV DATA                     RINEX VERSION / TYPE
teqc  2015Jun23                         20220114 01:25:45UTCPGM / RUN BY / DATE
Linux 2.4.21-27.ELsmp|Opteron|gcc -static|Linux x86_64|=+   COMMENT
  2021    12    21    9.313225746155D-10                    CORR TO SYSTEM TIME
                                                            END OF HEADER
 9 21 12 22 20 45  0.0 3.013294190168D-05 1.818989403546D-12 7.380000000000D+04
    1.663062695312D+04-1.555481910706D+00-9.313225746155D-10 0.000000000000D+00
    1.448388964844D+04-8.043889999390D-01 9.313225746155D-10-2.000000000000D+00
   -1.274209179688D+04-2.947184562683D+00 2.793967723846D-09 0.000000000000D+00
18 21 12 22 20 45  0.0 1.013679429889D-04 9.094947017729D-13 7.380000000000D+04
   -2.179077148438D+04 4.843750000000D-01 1.862645149231D-09 0.000000000000D+00
    1.295162792969D+04-3.254318237305D-02 0.000000000000D+00-3.000000000000D+00
   -3.047600585938D+03-3.571726799011D+00 9.313225746155D-10 0.000000000000D+00
 5 21 12 22 20 45  0.0 8.465908467770D-05 9.094947017729D-13 7.380000000000D+04
   -2.215208984375D+03 9.195613861084D-02 9.313225746155D-10 0.000000000000D+00
    2.399670312500D+04-1.160148620605D+00 4.656612873077D-09 1.000000000000D+00
    8.410941894531D+03 3.333427429199D+00 1.862645149231D-09 0.000000000000D+00
 4 21 12 22 20 45  0.0 1.200838014483D-04 1.818989403546D-12 7.380000000000D+04
   -8.971001464844D+03-1.336336135864D-01 1.862645149231D-09 0.000000000000D+00
    1.151124902344D+04-2.861030578613D+00 3.725290298462D-09 6.000000000000D+00
    2.094619238281D+04 1.515318870544D+00-0.000000000000D+00 0.000000000000D+00
 6 21 12 22 20 45  0.0-2.286303788424D-05-1.818989403546D-12 7.380000000000D+04
    7.693549316406D+03 2.870779037476D-01 0.000000000000D+00 0.000000000000D+00
    2.155151464844D+04 1.523961067200D+00 1.862645149231D-09-4.000000000000D+00
   -1.131530468750D+04 3.099197387695D+00 2.793967723846D-09 0.000000000000D+00
19 21 12 22 20 45  0.0-1.716371625662D-04-9.094947017729D-13 7.380000000000D+04
   -1.522504638672D+04-1.332175254822D+00 1.862645149231D-09 0.000000000000D+00
    1.620763818359D+04 1.099328041077D+00 2.793967723846D-09 3.000000000000D+00
    1.249818359375D+04-3.050450325012D+00 0.000000000000D+00 0.000000000000D+00
 9 21 12 22 21 15  0.0 3.013573586941D-05 1.818989403546D-12 7.560000000000D+04
    1.316445898438D+04-2.274404525757D+00-0.000000000000D+00 0.000000000000D+00
    1.303624902344D+04-7.643070220947D-01 0.000000000000D+00-2.000000000000D+00
   -1.748343847656D+04-2.286684989929D+00 2.793967723846D-09 0.000000000000D+00
18 21 12 22 21 15  0.0 1.013707369566D-04 9.094947017729D-13 7.560000000000D+04
   -2.032802929688D+04 1.104686737061D+00 9.313225746155D-10 0.000000000000D+00
    1.233771582031D+04-6.734409332275D-01-9.313225746155D-10-3.000000000000D+00
   -9.276283691406D+03-3.304155349731D+00 9.313225746155D-10 0.000000000000D+00
 5 21 12 22 21 15  0.0 8.466094732285D-05 9.094947017729D-13 7.560000000000D+04
   -2.319646972656D+03-2.402191162109D-01 1.862645149231D-09 0.000000000000D+00
    2.120852685547D+04-1.907612800598D+00 3.725290298462D-09 1.000000000000D+00
    1.400914501953D+04 2.846477508545D+00 9.313225746155D-10 0.000000000000D+00
 6 21 12 22 21 15  0.0-2.286676317453D-05-1.818989403546D-12 7.560000000000D+04
    8.267344726562D+03 3.101634979248D-01 9.313225746155D-10 0.000000000000D+00
    2.354543505859D+04 6.792669296265D-01 2.793967723846D-09-4.000000000000D+00
   -5.372181640625D+03 3.461503982544D+00 2.793967723846D-09 0.000000000000D+00
19 21 12 22 21 15  0.0-1.716399565339D-04-9.094947017729D-13 7.560000000000D+04
   -1.690228076172D+04-5.365076065063D-01 1.862645149231D-09 0.000000000000D+00
    1.792818457031D+04 7.677555084229D-01 9.313225746155D-10 3.000000000000D+00
    6.595111328125D+03-3.465942382812D+00 9.313225746155D-10 0.000000000000D+00
20 21 12 22 21 15  0.0-6.170012056828D-05-0.000000000000D+00 7.665000000000D+04
   -1.363332519531D+03-2.206852912903D+00 1.862645149231D-09 0.000000000000D+00
    1.358479589844D+04 1.966397285461D+00 3.725290298462D-09 2.000000000000D+00
    2.157027490234D+04-1.375224113464D+00-0.000000000000D+00 0.000000000000D+00
 7 21 12 22 21 15  0.0-3.900565207005D-05 0.000000000000D+00 7.686000000000D+04
    1.184009570312D+04 6.378602981567D-01-0.000000000000D+00 0.000000000000D+00
    1.169590869141D+04 2.574701309204D+00 0.000000000000D+00 5.000000000000D+00
   -1.931896630859D+04 1.941606521606D+00 2.793967723846D-09 0.000000000000D+00
 9 21 12 22 21 45  0.0 3.013852983713D-05 1.818989403546D-12 7.740000000000D+04
    8.549918457031D+03-2.815613746643D+00-0.000000000000D+00 0.000000000000D+00
    1.186114648438D+04-5.108938217163D-01-0.000000000000D+00-2.000000000000D+00
   -2.086770654297D+04-1.449230194092D+00 2.793967723846D-09 0.000000000000D+00
18 21 12 22 21 45  0.0 1.013725996017D-04 9.094947017729D-13 7.740000000000D+04
   -1.796313183594D+04 1.477714538574D+00 0.000000000000D+00 0.000000000000D+00
    1.047232763672D+04-1.405194282532D+00-1.862645149231D-09-3.000000000000D+00
   -1.478894775391D+04-2.781227111816D+00 9.313225746155D-10 0.000000000000D+00
 5 21 12 22 21 45  0.0 8.466187864542D-05 9.094947017729D-13 7.740000000000D+04
   -3.172605957031D+03-7.257337570190D-01 2.793967723846D-09 0.000000000000D+00
    1.726396337891D+04-2.431821823120D+00 2.793967723846D-09 1.000000000000D+00
    1.852606298828D+04 2.139767646790D+00 0.000000000000D+00 0.000000000000D+00
 6 21 12 22 21 45  0.0-2.287048846483D-05-1.818989403546D-12 7.740000000000D+04
    8.662870605469D+03 8.931827545166D-02 1.862645149231D-09 0.000000000000D+00
    2.398766845703D+04-1.807556152344D-01 3.725290298462D-09-4.000000000000D+00
    9.854750976562D+02 3.556777000427D+00 2.793967723846D-09 0.000000000000D+00
 7 21 12 22 21 45  0.0-3.900472074747D-05 0.000000000000D+00 7.740000000000D+04
    1.317663574219D+04 8.107862472534D-01 0.000000000000D+00 0.000000000000D+00
    1.576321826172D+04 1.914189338684D+00 9.313225746155D-10 5.000000000000D+00
   -1.512197607422D+04 2.691273689270D+00 2.793967723846D-09 0.000000000000D+00
19 21 12 22 21 45  0.0-1.716418191791D-04-9.094947017729D-13 7.740000000000D+04
   -1.720916796875D+04 1.719560623169D-01 1.862645149231D-09 0.000000000000D+00
    1.882346875000D+04 1.908407211304D-01 0.000000000000D+00 3.000000000000D+00
    1.819965820312D+02-3.613456726074D+00 9.313225746155D-10 0.000000000000D+00
20 21 12 22 21 45  0.0-6.170105189085D-05-0.000000000000D+00 7.740000000000D+04
   -4.788305175781D+03-1.580193519592D+00 2.793967723846D-09 0.000000000000D+00
    1.715262695312D+04 1.950398445129D+00 2.793967723846D-09 2.000000000000D+00
    1.829506298828D+04-2.240291595459D+00 0.000000000000D+00 0.000000000000D+00
18 21 12 22 22 15  0.0 1.013753935695D-04 9.094947017729D-13 7.920000000000D+04
   -1.517657128906D+04 1.571816444397D+00-0.000000000000D+00 0.000000000000D+00
    7.292795898438D+03-2.113948822021D+00-2.793967723846D-09-3.000000000000D+00
   -1.915909912109D+04-2.042858123779D+00 9.313225746155D-10 0.000000000000D+00
 5 21 12 22 22 15  0.0 8.466374129057D-05 9.094947017729D-13 7.920000000000D+04
   -4.966853027344D+03-1.268399238586D+00 2.793967723846D-09 0.000000000000D+00
    1.262449169922D+04-2.673329353333D+00 1.862645149231D-09 1.000000000000D+00
    2.161284082031D+04 1.267706871033D+00-9.313225746155D-10 0.000000000000D+00
 6 21 12 22 22 15  0.0-2.287328243256D-05-1.818989403546D-12 7.920000000000D+04
    8.456214843750D+03-3.512620925903D-01 2.793967723846D-09 0.000000000000D+00
    2.295374609375D+04-9.429922103882D-01 3.725290298462D-09-4.000000000000D+00
    7.267027343750D+03 3.377449989319D+00 1.862645149231D-09 0.000000000000D+00
 7 21 12 22 22 15  0.0-3.900472074747D-05 0.000000000000D+00 7.920000000000D+04
    1.461412207031D+04 7.438087463379D-01 9.313225746155D-10 0.000000000000D+00
    1.850913574219D+04 1.124500274658D+00 1.862645149231D-09 5.000000000000D+00
   -9.755991210938D+03 3.232141494751D+00 2.793967723846D-09 0.000000000000D+00
 9 21 12 22 22 15  0.0 3.014132380486D-05 1.818989403546D-12 7.920000000000D+04
    3.183334960938D+03-3.099653244019D+00-0.000000000000D+00 0.000000000000D+00
    1.128185595703D+04-1.169376373291D-01-9.313225746155D-10-2.000000000000D+00
   -2.263358105469D+04-5.002508163452D-01 2.793967723846D-09 0.000000000000D+00
19 21 12 22 22 15  0.0-1.716446131468D-04-9.094947017729D-13 7.920000000000D+04
   -1.639531054688D+04 6.947994232178D-01 9.313225746155D-10 0.000000000000D+00
    1.850997705078D+04-5.603723526001D-01-9.313225746155D-10 3.000000000000D+00
   -6.245176269531D+03-3.481442451477D+00 9.313225746155D-10 0.000000000000D+00
20 21 12 22 22 15  0.0-6.170198321342D-05-0.000000000000D+00 7.920000000000D+04
   -7.020207031250D+03-9.006357192993D-01 2.793967723846D-09 0.000000000000D+00
    2.043118750000D+04 1.644265174866D+00 1.862645149231D-09 2.000000000000D+00
    1.360921826172D+04-2.932482719421D+00 0.000000000000D+00 0.000000000000D+00
 7 21 12 22 22 45  0.0-3.900378942490D-05 0.000000000000D+00 8.100000000000D+04
    1.570050292969D+04 4.219579696655D-01 1.862645149231D-09 0.000000000000D+00
    1.980196484375D+04 3.190088272095D-01 1.862645149231D-09 5.000000000000D+00
   -3.636673339844D+03 3.522985458374D+00 2.793967723846D-09 0.000000000000D+00
 6 21 12 22 22 45  0.0-2.287700772285D-05-1.818989403546D-12 8.100000000000D+04
    7.304914062500D+03-9.464979171753D-01 3.725290298462D-09 0.000000000000D+00
    2.070955908203D+04-1.511907577515D+00 2.793967723846D-09-4.000000000000D+00
    1.298727197266D+04 2.937099456787D+00 9.313225746155D-10 0.000000000000D+00
 9 21 12 22 22 45  0.0 3.014504909515D-05 1.818989403546D-12 8.100000000000D+04
   -2.428954101562D+03-3.085424423218D+00-0.000000000000D+00 0.000000000000D+00
    1.146629443359D+04 3.203048706055D-01-1.862645149231D-09-2.000000000000D+00
   -2.264596533203D+04 4.863815307617D-01 1.862645149231D-09 0.000000000000D+00
